SITRO-AIS 6 (CHIRKIN)   
1 57192U 23091AC  26169.81919260  .00007312  00000+0  28692-3 0  9991
2 57192  97.5062 232.8447 0013103 101.4938 258.7773 15.25959260164531
SITRO-AIS 8 (ANOKHIN)   
1 57193U 23091AD  26169.85057955  .00011085  00000+0  35856-3 0  9992
2 57193  97.5052 235.3612 0011756  94.9553 265.3030 15.32173419164705
SITRO-AIS 7 (FARTUSHNIY)
1 57194U 23091AE  26169.82267491  .00007131  00000+0  28252-3 0  9997
2 57194  97.5060 232.6724 0012964 102.3874 257.8815 15.25647155164523
AVION KALUGA 650        
1 57195U 23091AF  26169.80758847  .00004250  00000+0  19811-3 0  9996
2 57195  97.5085 229.3776 0011917 104.4627 255.7931 15.20366357164272
HORS 2                  
1 57196U 23091AG  26169.86253675  .00010527  00000+0  34354-3 0  9995
2 57196  97.5084 236.9150 0009286  82.8145 277.4152 15.31926718164789
A-SEANSAT-PG1           
1 57197U 23091AH  26169.83411655  .00013787  00000+0  38252-3 0  9999
2 57197  97.5077 239.4507 0008191  80.2255 279.9914 15.37006088164962
SITRO-AIS 10 (BURDAEV)  
1 57199U 23091AK  26169.74505493  .00015957  00000+0  41932-3 0  9995
2 57199  97.5078 240.3245 0007405  75.6246 284.5820 15.38661418165009
SITRO-AIS 9 (SHCHUKIN)  
1 57201U 23091AM  26169.83700741  .00014707  00000+0  39289-3 0  9996
2 57201  97.5076 240.1475 0007655  75.5691 284.6402 15.38169565165007
UTMN 2 (RS27S)          
1 57203U 23091AP  26169.82426919  .00009964  00000+0  32374-3 0  9996
2 57203  97.5083 237.0682 0009170  78.8611 281.3661 15.32084540164793
SITRO-AIS 12 (SMIRENNIY)
1 57204U 23091AQ  26169.82731477  .00014925  00000+0  39495-3 0  9999
2 57204  97.5089 240.6058 0007175  70.6160 289.5860 15.38462458165021
SITRO-AIS 11 (SHEFFER)  
1 57208U 23091AU  26169.84027683  .00014925  00000+0  38953-3 0  9990
2 57208  97.5086 240.8667 0007084  70.4489 289.7521 15.38888264165046
H2SAT (HEINRICH HERTZ)  
1 57213U 23093A   26169.60986911 -.00000004  00000+0  00000+0 0  9992
2 57213   0.0587 104.5799 0000843  91.9025 290.6226  1.00270922 10939
KUZGTU 1 (RS47S)        
1 57217U 23091AV  26169.86550135  .00009294  00000+0  32301-3 0  9999
2 57217  97.5059 234.3626 0012275  92.8486 267.4159 15.29892478164638
QIANKUN-1               
1 57422U 23103B   26166.36556735  .00020233  18381-5  23233-4 0  9993
2 57422  96.1468 211.3446 0029378 145.9035 214.4147 16.08420909167009
FENGYUN 3F              
1 57490U 23111A   26169.80631586  .00000049  00000+0  43468-4 0  9995
2 57490  98.6836 239.7849 0001583  92.1786 267.9571 14.19939396149093
HJ-2F                   
1 57519U 23116A   26169.89573256  .00006438  00000+0  28180-3 0  9991
2 57519  97.3843 175.0846 0009693  47.2050 313.0000 15.22340434159010
XRISM                   
1 57800U 23137A   26169.77452784  .00004086  00000+0  22354-3 0  9990
2 57800  31.0032 349.3195 0007937 339.5471  20.4850 15.12478761153104
METEOR-M2 4             
1 59051U 24039A   26169.87164233  .00000003  00000+0  20866-4 0  9994
2 59051  98.7017 129.1485 0007381 156.3184 203.8335 14.22429672119500
GRBBETA                 
1 60237U 24128C   26169.41466747  .00002322  00000+0  16766-3 0  9995
2 60237  61.9881 211.9597 0040487 134.9163 225.5227 15.06645417106457
TRANSPORTER-11 OBJECT A 
1 60468U 24149A   26169.72015560  .00006718  00000+0  21369-3 0  9999
2 60468  97.3730 249.6453 0002987 187.7120 172.4076 15.32926393102294
WARATAH SEED-1          
1 60469U 24149B   26169.80494322  .00010390  00000+0  29885-3 0  9998
2 60469  97.3688 250.3810 0001643 173.3470 186.7796 15.35978933102365
PHISAT 2                
1 60470U 24149C   26169.87725800  .00005463  00000+0  18450-3 0  9996
2 60470  97.3756 249.0842 0001256 170.7906 189.3359 15.31082993102258
LEMUR-2-TOMATOKECHUP    
1 60471U 24149D   26169.67080127  .00008793  00000+0  25267-3 0  9994
2 60471  97.3799 251.7214 0001604 173.2707 186.8559 15.36059233102398
CONNECTA IOT-1          
1 60472U 24149E   26169.73780451  .00003172  00000+0  13566-3 0  9994
2 60472  97.3753 246.0031 0000353 248.8204 111.2995 15.23550155102036
LOPEN                   
1 60473U 24149F   26169.75510623  .00011644  00000+0  29652-3 0  9995
2 60473  97.3776 253.1352 0000984 180.9085 179.2159 15.39724329102501
ROCK                    
1 60474U 24149G   26169.74168418  .00011651  00000+0  29675-3 0  9999
2 60474  97.3773 253.1375 0001263 187.1183 173.0045 15.39719060102505
CONNECTA IOT-3          
1 60475U 24149H   26169.69349012  .00003272  00000+0  13980-3 0  9997
2 60475  97.3734 245.7120 0001447 241.4549 118.6542 15.23562310102034
QUBE                    
1 60476U 24149J   26169.79032433  .00017679  00000+0  34873-3 0  9995
2 60476  97.3779 256.2546 0002170 187.8898 172.2318 15.47245143102717
WREN-1                  
1 60478U 24149L   26169.75710079  .00015751  00000+0  37611-3 0  9994
2 60478  97.3765 253.8863 0003370 240.9652 119.1257 15.41605263102563
